[{"OBJECT_NAME":"ONEWEB-0303","OBJECT_ID":"2021-083B","EPOCH":"2026-03-09T19:55:07.688640","MEAN_MOTION":13.18685946,"ECCENTRICITY":0.00017097,"INCLINATION":87.9252,"RA_OF_ASC_NODE":355.1915,"ARG_OF_PERICENTER":71.9228,"MEAN_ANOMALY":288.2091,"EPHEMERIS_TYPE":0,"CLASSIFICATION_TYPE":"U","NORAD_CAT_ID":49187,"ELEMENT_SET_NO":999,"REV_AT_EPOCH":21688,"BSTAR":-0.00010909583,"MEAN_MOTION_DOT":-3.0e-7,"MEAN_MOTION_DDOT":0},{"OBJECT_NAME":"CZ-4C DEB","OBJECT_ID":"2012-066G","EPOCH":"2026-03-09T00:17:54.744288","MEAN_MOTION":12.93157707,"ECCENTRICITY":0.01642726,"INCLINATION":63.3567,"RA_OF_ASC_NODE":219.4748,"ARG_OF_PERICENTER":343.8029,"MEAN_ANOMALY":15.7755,"EPHEMERIS_TYPE":0,"CLASSIFICATION_TYPE":"U","NORAD_CAT_ID":43404,"ELEMENT_SET_NO":999,"REV_AT_EPOCH":58042,"BSTAR":0.00035966038,"MEAN_MOTION_DOT":2.6e-7,"MEAN_MOTION_DDOT":0}]
